start=new Date('2023-04-26T00:00:00.000Z').valueOf();
sats=[{"MEAN_MOTION_DDOT":"0.0000000000000","GP_ID":"230746222","RCS_SIZE":"LARGE","OBJECT_ID":"2023-026P","OBJECT_TYPE":"PAYLOAD","INCLINATION":"43.0011","LAUNCH_DATE":"2023-02-27","ARG_OF_PERICENTER":"269.6648","PERIAPSIS":"476.199","SITE":"AFETR","CENTER_NAME":"EARTH","TLE_LINE2":"2 55708  43.0011 308.9285 0002619 269.6648  71.3527 15.29270293  1309","MEAN_ELEMENT_THEORY":"SGP4","CLASSIFICATION_TYPE":"U","EPHEMERIS_TYPE":"0","COUNTRY_CODE":"US","REF_FRAME":"TEME","DECAY_DATE":null,"NORAD_CAT_ID":"55708","REV_AT_EPOCH":"130","ECCENTRICITY":"0.00026190","BSTAR":"-0.00063548000000","APOAPSIS":"479.790","SEMIMAJOR_AXIS":"6856.129","MEAN_ANOMALY":"71.3527","PERIOD":"94.163","RA_OF_ASC_NODE":"308.9285","TIME_SYSTEM":"UTC","MEAN_MOTION_DOT":"-0.00018640","EPOCH":"2023-04-25T14:00:01.999872","MEAN_MOTION":"15.29270293","ELEMENT_SET_NO":"999","OBJECT_NAME":"STARLINK-30058","TLE_LINE1":"1 55708U 23026P   23115.58335648 -.00018640  00000-0 -63548-3 0  9992","FILE":"3894092"},{"FILE":"3894092","TLE_LINE1":"1 55709U 23026Q   23114.76076125 -.00012292  00000-0 -90285-4 0  9990","ELEMENT_SET_NO":"999","OBJECT_NAME":"STARLINK-30047","MEAN_MOTION":"15.71392093","EPOCH":"2023-04-24T18:15:29.772000","MEAN_MOTION_DOT":"-0.00012292","TIME_SYSTEM":"UTC","RA_OF_ASC_NODE":"308.5797","PERIOD":"91.638","SEMIMAJOR_AXIS":"6733.055","MEAN_ANOMALY":"99.5754","APOAPSIS":"355.990","BSTAR":"-0.00009028500000","ECCENTRICITY":"0.00015900","REV_AT_EPOCH":"995","NORAD_CAT_ID":"55709","DECAY_DATE":null,"REF_FRAME":"TEME","COUNTRY_CODE":"US","EPHEMERIS_TYPE":"0","MEAN_ELEMENT_THEORY":"SGP4","CLASSIFICATION_TYPE":"U","TLE_LINE2":"2 55709  43.0023 308.5797 0001590 260.4934  99.5754 15.71392093  9954","CENTER_NAME":"EARTH","SITE":"AFETR","PERIAPSIS":"353.849","ARG_OF_PERICENTER":"260.4934","LAUNCH_DATE":"2023-02-27","INCLINATION":"43.0023","OBJECT_TYPE":"PAYLOAD","RCS_SIZE":"LARGE","OBJECT_ID":"2023-026Q","GP_ID":"230744970","MEAN_MOTION_DDOT":"0.0000000000000"},{"FILE":"3894092","ELEMENT_SET_NO":"999","OBJECT_NAME":"STARLINK-30046","TLE_LINE1":"1 55710U 23026R   23115.54695177  .00014301  00000-0  11257-3 0  9995","MEAN_MOTION":"15.71295198","EPOCH":"2023-04-25T13:07:36.632928","TIME_SYSTEM":"UTC","MEAN_MOTION_DOT":"0.00014301","RA_OF_ASC_NODE":"304.1755","MEAN_ANOMALY":"68.2288","SEMIMAJOR_AXIS":"6733.331","PERIOD":"91.644","APOAPSIS":"357.957","BSTAR":"0.00011257000000","ECCENTRICITY":"0.00041000","REV_AT_EPOCH":"1007","NORAD_CAT_ID":"55710","COUNTRY_CODE":"US","DECAY_DATE":null,"REF_FRAME":"TEME","CENTER_NAME":"EARTH","TLE_LINE2":"2 55710  43.0004 304.1755 0004100 291.8143  68.2288 15.71295198 10079","EPHEMERIS_TYPE":"0","MEAN_ELEMENT_THEORY":"SGP4","CLASSIFICATION_TYPE":"U","SITE":"AFETR","PERIAPSIS":"352.436","LAUNCH_DATE":"2023-02-27","ARG_OF_PERICENTER":"291.8143","INCLINATION":"43.0004","RCS_SIZE":"LARGE","OBJECT_ID":"2023-026R","OBJECT_TYPE":"PAYLOAD","GP_ID":"230744720","MEAN_MOTION_DDOT":"0.0000000000000"},{"TLE_LINE1":"1 55711U 23026S   23115.58335648  .00221291  00000-0  11608-2 0  9991","ELEMENT_SET_NO":"999","OBJECT_NAME":"STARLINK-30048","MEAN_MOTION":"15.79234136","FILE":"3894092","RA_OF_ASC_NODE":"302.9520","PERIOD":"91.183","SEMIMAJOR_AXIS":"6710.746","MEAN_ANOMALY":"311.6628","APOAPSIS":"341.597","EPOCH":"2023-04-25T14:00:01.999872","MEAN_MOTION_DOT":"0.00221291","TIME_SYSTEM":"UTC","REF_FRAME":"TEME","DECAY_DATE":null,"COUNTRY_CODE":"US","EPHEMERIS_TYPE":"0","MEAN_ELEMENT_THEORY":"SGP4","CLASSIFICATION_TYPE":"U","CENTER_NAME":"EARTH","TLE_LINE2":"2 55711  42.9975 302.9520 0013390 296.6641 311.6628 15.79234136  1300","SITE":"AFETR","ECCENTRICITY":"0.00133900","BSTAR":"0.00116080000000","REV_AT_EPOCH":"130","NORAD_CAT_ID":"55711","INCLINATION":"42.9975","OBJECT_TYPE":"PAYLOAD","RCS_SIZE":"LARGE","OBJECT_ID":"2023-026S","GP_ID":"230745972","MEAN_MOTION_DDOT":"0.0000000000000","PERIAPSIS":"323.626","ARG_OF_PERICENTER":"296.6641","LAUNCH_DATE":"2023-02-27"},{"PERIAPSIS":"354.325","ARG_OF_PERICENTER":"282.3267","LAUNCH_DATE":"2023-02-27","INCLINATION":"42.9997","OBJECT_TYPE":"PAYLOAD","RCS_SIZE":"LARGE","OBJECT_ID":"2023-026T","GP_ID":"230745722","MEAN_MOTION_DDOT":"0.0000000000000","ECCENTRICITY":"0.00015870","BSTAR":"0.00012600000000","REV_AT_EPOCH":"1008","NORAD_CAT_ID":"55712","REF_FRAME":"TEME","DECAY_DATE":null,"COUNTRY_CODE":"US","EPHEMERIS_TYPE":"0","MEAN_ELEMENT_THEORY":"SGP4","CLASSIFICATION_TYPE":"U","CENTER_NAME":"EARTH","TLE_LINE2":"2 55712  42.9997 303.6191 0001587 282.3267  77.7423 15.71226209 10080","SITE":"AFETR","EPOCH":"2023-04-25T14:08:05.445024","MEAN_MOTION_DOT":"0.00016013","TIME_SYSTEM":"UTC","RA_OF_ASC_NODE":"303.6191","PERIOD":"91.648","MEAN_ANOMALY":"77.7423","SEMIMAJOR_AXIS":"6733.528","APOAPSIS":"356.462","FILE":"3894092","TLE_LINE1":"1 55712U 23026T   23115.58895191  .00016013  00000-0  12600-3 0  9994","ELEMENT_SET_NO":"999","OBJECT_NAME":"STARLINK-30037","MEAN_MOTION":"15.71226209"},{"TLE_LINE2":"2 55713  42.9982 303.2802 0007306 297.0935 181.0615 15.79774188  1309","CENTER_NAME":"EARTH","MEAN_ELEMENT_THEORY":"SGP4","CLASSIFICATION_TYPE":"U","EPHEMERIS_TYPE":"0","SITE":"AFETR","COUNTRY_CODE":"US","DECAY_DATE":null,"REF_FRAME":"TEME","REV_AT_EPOCH":"130","NORAD_CAT_ID":"55713","ECCENTRICITY":"0.00073060","BSTAR":"0.00293690000000","GP_ID":"230744470","MEAN_MOTION_DDOT":"0.0000000000000","INCLINATION":"42.9982","RCS_SIZE":"LARGE","OBJECT_ID":"2023-026U","OBJECT_TYPE":"PAYLOAD","PERIAPSIS":"326.180","LAUNCH_DATE":"2023-02-27","ARG_OF_PERICENTER":"297.0935","MEAN_MOTION":"15.79774188","OBJECT_NAME":"STARLINK-30063","ELEMENT_SET_NO":"999","TLE_LINE1":"1 55713U 23026U   23115.58335648  .00597969  00000-0  29369-2 0  9994","FILE":"3894092","SEMIMAJOR_AXIS":"6709.217","MEAN_ANOMALY":"181.0615","PERIOD":"91.152","APOAPSIS":"335.984","RA_OF_ASC_NODE":"303.2802","TIME_SYSTEM":"UTC","MEAN_MOTION_DOT":"0.00597969","EPOCH":"2023-04-25T14:00:01.999872"},{"MEAN_MOTION_DOT":"-0.00030163","TIME_SYSTEM":"UTC","EPOCH":"2023-04-25T14:08:30.783552","PERIOD":"91.646","MEAN_ANOMALY":"92.8557","SEMIMAJOR_AXIS":"6733.437","APOAPSIS":"356.538","RA_OF_ASC_NODE":"303.6214","FILE":"3894092","MEAN_MOTION":"15.71258134","TLE_LINE1":"1 55714U 23026V   23115.58924518 -.00030163  00000-0 -22833-3 0  9995","OBJECT_NAME":"STARLINK-30059","ELEMENT_SET_NO":"999","PERIAPSIS":"354.066","ARG_OF_PERICENTER":"267.2101","LAUNCH_DATE":"2023-02-27","GP_ID":"230745221","MEAN_MOTION_DDOT":"0.0000000000000","INCLINATION":"42.9996","OBJECT_TYPE":"PAYLOAD","OBJECT_ID":"2023-026V","RCS_SIZE":"LARGE","REV_AT_EPOCH":"1008","NORAD_CAT_ID":"55714","ECCENTRICITY":"0.00018360","BSTAR":"-0.00022833000000","MEAN_ELEMENT_THEORY":"SGP4","EPHEMERIS_TYPE":"0","CLASSIFICATION_TYPE":"U","CENTER_NAME":"EARTH","TLE_LINE2":"2 55714  42.9996 303.6214 0001836 267.2101  92.8557 15.71258134 10081","SITE":"AFETR","DECAY_DATE":null,"REF_FRAME":"TEME","COUNTRY_CODE":"US"},{"MEAN_MOTION_DOT":"-0.00872480","TIME_SYSTEM":"UTC","EPOCH":"2023-04-25T14:00:01.999872","APOAPSIS":"520.324","PERIOD":"94.988","MEAN_ANOMALY":"60.0592","SEMIMAJOR_AXIS":"6896.139","RA_OF_ASC_NODE":"10.0817","FILE":"3894092","MEAN_MOTION":"15.15980996","TLE_LINE1":"1 55741U 23028A   23115.58335648 -.00872480  00000-0 -48764-1 0  9992","OBJECT_NAME":"STARLINK-5592","ELEMENT_SET_NO":"999","ARG_OF_PERICENTER":"267.9787","LAUNCH_DATE":"2023-03-03","PERIAPSIS":"515.684","MEAN_MOTION_DDOT":"0.0000000000000","GP_ID":"230744473","OBJECT_TYPE":"PAYLOAD","OBJECT_ID":"2023-028A","RCS_SIZE":"LARGE","INCLINATION":"70.0022","NORAD_CAT_ID":"55741","REV_AT_EPOCH":"887","BSTAR":"-0.04876400000000","ECCENTRICITY":"0.00033640","SITE":"AFWTR","MEAN_ELEMENT_THEORY":"SGP4","EPHEMERIS_TYPE":"0","CLASSIFICATION_TYPE":"U","TLE_LINE2":"2 55741  70.0022  10.0817 0003364 267.9787  60.0592 15.15980996  8872","CENTER_NAME":"EARTH","DECAY_DATE":null,"REF_FRAME":"TEME","COUNTRY_CODE":"US"},{"EPOCH":"2023-04-25T14:00:01.999872","TIME_SYSTEM":"UTC","MEAN_MOTION_DOT":"-0.00871933","RA_OF_ASC_NODE":"10.1100","APOAPSIS":"521.316","MEAN_ANOMALY":"37.4948","SEMIMAJOR_AXIS":"6897.190","PERIOD":"95.010","FILE":"3893896","ELEMENT_SET_NO":"999","OBJECT_NAME":"STARLINK-5594","TLE_LINE1":"1 55742U 23028B   23115.58335648 -.00871933  00000-0 -49216-1 0  9998","MEAN_MOTION":"15.15634343","LAUNCH_DATE":"2023-03-03","ARG_OF_PERICENTER":"265.3829","PERIAPSIS":"516.795","RCS_SIZE":"LARGE","OBJECT_ID":"2023-028B","OBJECT_TYPE":"PAYLOAD","INCLINATION":"70.0019","MEAN_MOTION_DDOT":"0.0000000000000","GP_ID":"230714734","ECCENTRICITY":"0.00032780","BSTAR":"-0.04921600000000","NORAD_CAT_ID":"55742","REV_AT_EPOCH":"888","COUNTRY_CODE":"US","DECAY_DATE":null,"REF_FRAME":"TEME","SITE":"AFWTR","TLE_LINE2":"2 55742  70.0019  10.1100 0003278 265.3829  37.4948 15.15634343  8884","CENTER_NAME":"EARTH","EPHEMERIS_TYPE":"0","CLASSIFICATION_TYPE":"U","MEAN_ELEMENT_THEORY":"SGP4"},{"INCLINATION":"70.0018","RCS_SIZE":"LARGE","OBJECT_ID":"2023-028C","OBJECT_TYPE":"PAYLOAD","GP_ID":"230714733","MEAN_MOTION_DDOT":"0.0000000000000","PERIAPSIS":"517.938","LAUNCH_DATE":"2023-03-03","ARG_OF_PERICENTER":"266.8862","COUNTRY_CODE":"US","REF_FRAME":"TEME","DECAY_DATE":null,"CENTER_NAME":"EARTH","TLE_LINE2":"2 55743  70.0018  10.1391 0003238 266.8862  10.5359 15.15266372  8875","MEAN_ELEMENT_THEORY":"SGP4","EPHEMERIS_TYPE":"0","CLASSIFICATION_TYPE":"U","SITE":"AFWTR","BSTAR":"-0.04982700000000","ECCENTRICITY":"0.00032380","REV_AT_EPOCH":"887","NORAD_CAT_ID":"55743","RA_OF_ASC_NODE":"10.1391","MEAN_ANOMALY":"10.5359","SEMIMAJOR_AXIS":"6898.307","PERIOD":"95.033","APOAPSIS":"522.406","EPOCH":"2023-04-25T14:00:01.999872","TIME_SYSTEM":"UTC","MEAN_MOTION_DOT":"-0.00873445","ELEMENT_SET_NO":"999","OBJECT_NAME":"STARLINK-5602","TLE_LINE1":"1 55743U 23028C   23115.58335648 -.00873445  00000-0 -49827-1 0  9997","MEAN_MOTION":"15.15266372","FILE":"3893896"}];
